{"fetched_at":"2026-03-28T16:33:49Z","count":6709,"tles":[{"name":"KANOPUS-V 3","line1":"1 43180U 18014A   26086.92497100 -.00000057  00000+0  47155-6 0  9994","line2":"2 43180  97.3634 354.0908 0001510  96.4806 263.6603 15.22554606452350","category":"Other"}]}